[{"OBJECT_NAME":"COSMO-SKYMED 3","OBJECT_ID":"2008-054A","EPOCH":"2026-03-09T22:03:15.183936","MEAN_MOTION":15.06259488,"ECCENTRICITY":0.00143526,"INCLINATION":97.8419,"RA_OF_ASC_NODE":285.8111,"ARG_OF_PERICENTER":240.3641,"MEAN_ANOMALY":119.6157,"EPHEMERIS_TYPE":0,"CLASSIFICATION_TYPE":"U","NORAD_CAT_ID":33412,"ELEMENT_SET_NO":999,"REV_AT_EPOCH":94199,"BSTAR":0.00061875413,"MEAN_MOTION_DOT":9.042e-5,"MEAN_MOTION_DDOT":0},{"OBJECT_NAME":"STARLINK-30448","OBJECT_ID":"2023-147R","EPOCH":"2026-03-08T10:56:02.581152","MEAN_MOTION":15.02537394,"ECCENTRICITY":0.00010577,"INCLINATION":43.0037,"RA_OF_ASC_NODE":332.6498,"ARG_OF_PERICENTER":276.8117,"MEAN_ANOMALY":83.2605,"EPHEMERIS_TYPE":0,"CLASSIFICATION_TYPE":"U","NORAD_CAT_ID":57928,"ELEMENT_SET_NO":999,"REV_AT_EPOCH":13640,"BSTAR":9.280838e-5,"MEAN_MOTION_DOT":1.05e-5,"MEAN_MOTION_DDOT":0}]
